NORAD_CAT_ID,OBJECT_NAME,OBJECT_TYPE,EPOCH,MEAN_MOTION,ECCENTRICITY,INCLINATION,RA_OF_ASC_NODE,ARG_OF_PERICENTER,MEAN_ANOMALY,BSTAR,MEAN_MOTION_DOT,MEAN_MOTION_DDOT,TLE_LINE0,TLE_LINE1,TLE_LINE2,SEMIMAJOR_AXIS,PERIOD,APOGEE,PERIGEE,DECAYED
53733.0,STARLINK-4574,PAYLOAD,2023-02-22 19:10:54,15.08850004,0.0001234,53.2172,201.3305,82.7439,277.3694,0.00026958,4.006e-05,0.0,0 STARLINK-4574,1 53733U 22107AK  23053.79924438  .00004006  00000-0  26958-3 0  9995,2 53733  53.2172 201.3305 0001234  82.7439 277.3694 15.08850004 26243,6917.85,95.437,540.568,538.861,0.0
53733.0,STARLINK-4574,PAYLOAD,2023-02-22 20:46:17,15.08854064,0.0001207,53.2173,201.0332,84.0184,276.0946,0.00047569,7.294e-05,0.0,0 STARLINK-4574,1 53733U 22107AK  23053.86548346  .00007294  00000-0  47569-3 0  9996,2 53733  53.2173 201.0332 0001207  84.0184 276.0946 15.08854064 26889,6917.837,95.437,540.537,538.867,0.0
53733.0,STARLINK-4574,PAYLOAD,2023-02-23 03:07:50,15.08833992,0.000119,53.2182,199.8413,107.7444,252.3678,-1.0749e-05,-4.59e-06,0.0,0 STARLINK-4574,1 53733U 22107AK  23054.13044879 -.00000459  00000-0 -10749-4 0  9998,2 53733  53.2182 199.8413 0001190 107.7444 252.3678 15.08833992 26297,6917.899,95.438,540.587,538.941,0.0
53733.0,STARLINK-4574,PAYLOAD,2023-02-23 12:40:09,15.08838494,0.00011,53.2174,198.0588,93.1227,266.9892,6.2682e-05,7.1e-06,0.0,0 STARLINK-4574,1 53733U 22107AK  23054.52788993  .00000710  00000-0  62682-4 0  9994,2 53733  53.2174 198.0588 0001100  93.1227 266.9892 15.08838494 26987,6917.885,95.438,540.511,538.989,0.0
53733.0,STARLINK-4574,PAYLOAD,2023-02-23 20:37:05,15.08852203,0.0001248,53.2174,196.5729,85.8185,274.295,0.00090081,0.00014082,0.0,0 STARLINK-4574,1 53733U 22107AK  23054.85908876  .00014082  00000-0  90081-3 0  9994,2 53733  53.2174 196.5729 0001248  85.8185 274.2950 15.08852203 26409,6917.843,95.437,540.571,538.845,0.0
53733.0,STARLINK-4574,PAYLOAD,2023-02-24 02:58:38,15.08838358,0.000104,53.2175,195.383,89.1151,270.996,0.00030012,4.492e-05,0.0,0 STARLINK-4574,1 53733U 22107AK  23055.12405148  .00004492  00000-0  30012-3 0  9991,2 53733  53.2175 195.3830 0001040  89.1151 270.9960 15.08838358 26443,6917.885,95.438,540.47,539.031,0.0
53733.0,STARLINK-4574,PAYLOAD,2023-02-24 12:30:56,15.08840024,0.0001092,53.2176,193.5997,89.3691,270.7426,0.00052682,8.106e-05,0.0,0 STARLINK-4574,1 53733U 22107AK  23055.52149302  .00008106  00000-0  52682-3 0  9995,2 53733  53.2176 193.5997 0001092  89.3691 270.7426 15.08840024 27131,6917.88,95.438,540.501,538.99,0.0
53733.0,STARLINK-4574,PAYLOAD,2023-02-24 20:27:52,15.08851802,0.0001141,53.2176,192.1128,94.4599,265.6523,0.00083187,0.0001298,0.0,0 STARLINK-4574,1 53733U 22107AK  23055.85269110  .00012980  00000-0  83187-3 0  9990,2 53733  53.2176 192.1128 0001141  94.4599 265.6523 15.08851802 27183,6917.844,95.437,540.499,538.92,0.0
53733.0,STARLINK-4574,PAYLOAD,2023-02-25 12:21:44,15.08838039,0.0001122,53.2177,189.1395,96.0891,264.0229,0.00063312,9.802e-05,0.0,0 STARLINK-4574,1 53733U 22107AK  23056.51509893  .00009802  00000-0  63312-3 0  9996,2 53733  53.2177 189.1395 0001122  96.0891 264.0229 15.08838039 26652,6917.886,95.438,540.528,538.975,0.0
53733.0,STARLINK-4574,PAYLOAD,2023-02-25 20:18:40,15.08844749,0.0001277,53.2178,187.6532,80.2712,279.8424,0.0012329,0.00019391,0.0,0 STARLINK-4574,1 53733U 22107AK  23056.84630049  .00019391  00000-0  12329-2 0  9995,2 53733  53.2178 187.6532 0001277  80.2712 279.8424 15.08844749 27339,6917.866,95.437,540.614,538.847,0.0
53733.0,STARLINK-4574,PAYLOAD,2023-02-26 07:26:22,15.08857243,0.0001492,53.2191,185.5694,73.4988,286.6168,0.001096,0.00017206,0.0,0 STARLINK-4574,1 53733U 22107AK  23057.30997868  .00017206  00000-0  10960-2 0  9994,2 53733  53.2191 185.5694 0001492  73.4988 286.6168 15.08857243 27400,6917.828,95.436,540.725,538.661,0.0
53733.0,STARLINK-4574,PAYLOAD,2023-02-26 20:09:26,15.08891387,0.0001298,53.2177,183.1924,68.6774,291.4357,0.002032,0.00032245,0.0,0 STARLINK-4574,1 53733U 22107AK  23057.83988468  .00032245  00000-0  20320-2 0  9999,2 53733  53.2177 183.1924 0001298  68.6774 291.4357 15.08891387 26856,6917.723,95.434,540.486,538.69,0.0
53733.0,STARLINK-4574,PAYLOAD,2023-02-27 00:55:35,15.08832589,9.87e-05,53.2183,182.2994,97.9711,262.1394,-0.00092753,-0.00015016,0.0,0 STARLINK-4574,1 53733U 22107AK  23058.03861004 -.00015016  00000-0 -92753-3 0  9997,2 53733  53.2183 182.2994 0000987  97.9711 262.1394 15.08832589 26888,6917.903,95.438,540.451,539.085,0.0
53733.0,STARLINK-4574,PAYLOAD,2023-02-27 16:49:26,15.08919559,0.0001414,53.2183,179.3249,107.5578,252.5568,0.0042038,0.00067402,0.0,0 STARLINK-4574,1 53733U 22107AK  23058.70100213  .00067402  00000-0  42038-2 0  9993,2 53733  53.2183 179.3249 0001414 107.5578 252.5568 15.08919559 26983,6917.637,95.433,540.48,538.524,0.0
53733.0,STARLINK-4574,PAYLOAD,2023-02-27 18:24:50,15.08881837,0.0001163,53.2176,179.0274,87.5262,272.5863,0.0038338,0.00061328,0.0,0 STARLINK-4574,1 53733U 22107AK  23058.76724834  .00061328  00000-0  38338-2 0  9999,2 53733  53.2176 179.0274 0001163  87.5262 272.5863 15.08881837 27627,6917.753,95.435,540.422,538.813,0.0
53733.0,STARLINK-4574,PAYLOAD,2023-02-28 00:46:23,15.08844578,0.0001218,53.2174,177.8382,97.6398,262.4733,0.00064929,0.00010062,0.0,0 STARLINK-4574,1 53733U 22107AK  23059.03221244  .00010062  00000-0  64929-3 0  9992,2 53733  53.2174 177.8382 0001218  97.6398 262.4733 15.08844578 27034,6917.866,95.437,540.574,538.889,0.0
53733.0,STARLINK-4574,PAYLOAD,2023-02-28 13:29:29,15.08821637,9.76e-05,53.217,175.4607,105.4238,254.6862,0.0019477,0.0003083,0.0,0 STARLINK-4574,1 53733U 22107AK  23059.56214297  .00030830  00000-0  19477-2 0  9992,2 53733  53.2170 175.4607 0000976 105.4238 254.6862 15.08821637 27740,6917.937,95.439,540.477,539.126,0.0
53733.0,STARLINK-4574,PAYLOAD,2023-02-28 15:04:52,15.08830215,9.18e-05,53.2171,175.1634,110.8135,249.2956,0.0017034,0.00026918,0.0,0 STARLINK-4574,1 53733U 22107AK  23059.62838254  .00026918  00000-0  17034-2 0  9993,2 53733  53.2171 175.1634 0000918 110.8135 249.2956 15.08830215 27128,6917.91,95.438,540.41,539.14,0.0
53733.0,STARLINK-4574,PAYLOAD,2023-02-28 19:51:01,15.08841915,9.4e-05,53.217,174.2702,104.1559,255.9538,0.0022369,0.00035494,0.0,0 STARLINK-4574,1 53733U 22107AK  23059.82710354  .00035494  00000-0  22369-2 0  9991,2 53733  53.2170 174.2702 0000940 104.1559 255.9538 15.08841915 27785,6917.875,95.437,540.39,539.089,0.0
53733.0,STARLINK-4574,PAYLOAD,2023-03-01 00:37:11,15.08814012,7.41e-05,53.2172,173.3798,133.2227,226.8827,3.1767e-05,2.18e-06,0.0,0 STARLINK-4574,1 53733U 22107AK  23060.02582803  .00000218  00000-0  31767-4 0  9991,2 53733  53.2172 173.3798 0000741 133.2227 226.8827 15.08814012 27186,6917.96,95.439,540.337,539.312,0.0
53733.0,STARLINK-4574,PAYLOAD,2023-03-01 11:44:54,15.08834667,9.17e-05,53.2165,171.2988,109.1534,250.9557,0.0020227,0.00032045,0.0,0 STARLINK-4574,1 53733U 22107AK  23060.48951670  .00032045  00000-0  20227-2 0  9993,2 53733  53.2165 171.2988 0000917 109.1534 250.9557 15.08834667 27258,6917.897,95.438,540.396,539.127,0.0
53733.0,STARLINK-4574,PAYLOAD,2023-03-01 16:31:03,15.08845322,0.0001008,53.2164,170.4069,99.7679,260.3427,0.0024063,0.00038222,0.0,0 STARLINK-4574,1 53733U 22107AK  23060.68823806  .00038222  00000-0  24063-2 0  9999,2 53733  53.2164 170.4069 0001008  99.7679 260.3427 15.08845322 27918,6917.864,95.437,540.426,539.032,0.0
53733.0,STARLINK-4574,PAYLOAD,2023-03-02 00:27:59,15.08846752,0.0001043,53.217,168.9209,101.5382,258.5728,0.0017899,0.00028318,0.0,0 STARLINK-4574,1 53733U 22107AK  23061.01943777  .00028318  00000-0  17899-2 0  9991,2 53733  53.2170 168.9209 0001043 101.5382 258.5728 15.08846752 27332,6917.86,95.437,540.446,539.003,0.0
53733.0,STARLINK-4574,PAYLOAD,2023-03-02 16:21:49,15.08884908,0.0001182,53.2162,165.947,95.4837,264.629,0.0018692,0.00029622,0.0,0 STARLINK-4574,1 53733U 22107AK  23061.68182668  .00029622  00000-0  18692-2 0  9999,2 53733  53.2162 165.9470 0001182  95.4837 264.6290 15.08884908 28068,6917.743,95.435,540.426,538.79,0.0
53733.0,STARLINK-4574,PAYLOAD,2023-03-03 09:51:03,15.08874933,0.0001328,53.2172,162.6773,88.3362,271.7782,0.0015623,0.00024687,0.0,0 STARLINK-4574,1 53733U 22107AK  23062.41046067  .00024687  00000-0  15623-2 0  9990,2 53733  53.2172 162.6773 0001328  88.3362 271.7782 15.08874933 27549,6917.774,95.435,540.557,538.72,0.0
53733.0,STARLINK-4574,PAYLOAD,2023-03-03 11:26:26,15.08875401,0.0001201,53.2168,162.3794,86.3292,273.7837,0.0016259,0.00025708,0.0,0 STARLINK-4574,1 53733U 22107AK  23062.47669919  .00025708  00000-0  16259-2 0  9994,2 53733  53.2168 162.3794 0001201  86.3292 273.7837 15.08875401 28189,6917.772,95.435,540.468,538.806,0.0
53733.0,STARLINK-4574,PAYLOAD,2023-03-03 16:12:35,15.0888853,0.0001211,53.2176,161.4873,83.4186,276.6944,0.0018548,0.00029394,0.0,0 STARLINK-4574,1 53733U 22107AK  23062.67541295  .00029394  00000-0  18548-2 0  9990,2 53733  53.2176 161.4873 0001211  83.4186 276.6944 15.08888530 28219,6917.732,95.434,540.435,538.759,0.0
53733.0,STARLINK-4574,PAYLOAD,2023-03-04 06:31:04,15.08845026,0.0002193,53.2204,158.8146,85.7441,274.3802,0.00073556,0.00011439,0.0,0 STARLINK-4574,1 53733U 22107AK  23063.27158078  .00011439  00000-0  73556-3 0  9992,2 53733  53.2204 158.8146 0002193  85.7441 274.3802 15.08845026 27673,6917.865,95.437,541.247,538.213,0.0
53733.0,STARLINK-4574,PAYLOAD,2023-03-04 11:17:13,15.08840665,0.0001479,53.2197,157.9206,116.0305,244.084,-6.5019e-06,-3.91e-06,0.0,0 STARLINK-4574,1 53733U 22107AK  23063.47029817 -.00000391  00000-0 -65019-5 0  9996,2 53733  53.2197 157.9206 0001479 116.0305 244.0840 15.08840665 28338,6917.878,95.438,540.767,538.72,0.0
53733.0,STARLINK-4574,PAYLOAD,2023-03-04 17:38:45,15.08856265,0.0001264,53.2178,156.7257,122.6109,237.5005,0.00068095,0.00010571,0.0,0 STARLINK-4574,1 53733U 22107AK  23063.73525424  .00010571  00000-0  68095-3 0  9994,2 53733  53.2178 156.7257 0001264 122.6109 237.5005 15.08856265 28374,6917.831,95.437,540.57,538.821,0.0
